satname,norad_id,inclination_deg,eccentricity,mean_motion_rev_per_day,perigee_km,apogee_km,l1,l2
STARLINK-1260,45404,53.1612,0.0001509,15.30199537,474.1822808183324,476.2506228901011,1 45404U 20019AW  26066.60765518  .00000005  00000+0  12304-4 0  9995,2 45404  53.1612 138.9119 0001509  86.1634 273.9539 15.30199537329658
STARLINK-1263,45405,53.1605,0.0001519,15.30209717,474.1450365900946,476.2270761346181,1 45405U 20019AX  26066.59605483  .00003412  00000+0  12722-3 0  9996,2 45405  53.1605 138.9953 0001519  82.1602 277.9571 15.30209717329651
STARLINK-1265,45406,53.1586,0.0001161,15.30196852,474.42879352947966,476.0201440625342,1 45406U 20019AY  26066.48019659  .00002642  00000+0  10132-3 0  9996,2 45406  53.1586 139.6084 0001161  82.6512 277.4621 15.30196852329635
STARLINK-1278,45408,53.0443,0.0001386,15.55383286,400.09909932620485,401.9782868283264,1 45408U 20019BA  26066.46868136  .00122429  00000+0  17484-2 0  9990,2 45408  53.0443 141.1495 0001386  37.8144 322.2963 15.55383286329616
STARLINK-1296,45412,53.1588,0.0001436,15.30202694,474.2228854306404,476.1911658348017,1 45412U 20019BE  26066.60448739  .00002094  00000+0  82809-4 0  9994,2 45412  53.1588 138.9335 0001436  88.5774 271.5391 15.30202694329658
STARLINK-1298,45413,53.0351,0.0006637,15.95161626,283.4398444885528,292.2882943080722,1 45413U 20019BF  26066.66668981  .00272887  40280-4  68596-3 0  9998,2 45413  53.0351  64.2623 0006637  12.8711 323.0580 15.95161626  6011
STARLINK-1309,45414,53.0672,0.0005331,15.54350347,400.4261686892005,407.6573276705094,1 45414U 20019BG  26066.50641564  .00113019  00000+0  16781-2 0  9990,2 45414  53.0672 134.1531 0005331  23.1027 337.0222 15.54350347329693
STARLINK-1316,45415,53.1606,0.0001349,15.30196396,474.30131168900607,476.15034898063095,1 45415U 20019BH  26066.51916635  .00001835  00000+0  74083-4 0  9999,2 45415  53.1606 139.3817 0001349  95.3751 264.7404 15.30196396329667
STARLINK-1286,45417,53.0486,0.0002871,15.50702538,412.7234458830344,416.6238777650533,1 45417U 20019BK  26066.47952009  .00048263  00000+0  82859-3 0  9996,2 45417  53.0486 141.3414 0002871  60.6707 299.4588 15.50702538329882
STARLINK-1308,45419,53.0546,0.0001688,15.5012016,415.2280080758783,417.5218353006394,1 45419U 20019BM  26066.49064662  .00092599  00000+0  16066-2 0  9996,2 45419  53.0546 162.6647 0001688  17.8429 342.2638 15.50120160329333
STARLINK-1329,45531,53.0492,0.0001012,15.55734404,399.33269808059595,400.7045967836366,1 45531U 20025A   26066.66668981  .00077588  00000+0  11025-2 0  9992,2 45531  53.0492  91.1445 0001012 330.7948 121.4272 15.55734404  5883
STARLINK-1338,45532,53.0486,0.0005157,15.54235674,400.8775995691367,407.8730827978334,1 45532U 20025B   26066.45205234  .00115277  00000+0  17182-2 0  9996,2 45532  53.0486  95.5379 0005157 351.7797   8.3127 15.54235674325050
STARLINK-1350,45535,53.0741,0.000201,15.36036803,456.4686054128797,459.2166692270812,1 45535U 20025E   26066.31835750  .00019445  00000+0  55549-3 0  9996,2 45535  53.0741  44.2797 0002010  69.4866 290.6352 15.36036803325797
STARLINK-1362,45538,53.1616,0.0001412,15.30193737,474.2660737195156,476.20146562487116,1 45538U 20025H   26066.43527123  .00000949  00000+0  44178-4 0  9990,2 45538  53.1616 111.4709 0001412  76.2724 283.8434 15.30193737324839
STARLINK-1368,45540,53.1606,0.0002219,15.30081371,474.0484596877059,477.0901345423663,1 45540U 20025K   26066.44482874  .00029425  00000+0  10053-2 0  9990,2 45540  53.1606 111.7565 0002219 112.5429 247.5807 15.30081371324826
STARLINK-1371,45542,53.0514,0.000177,15.46599033,425.47922546671634,427.8881319869861,1 45542U 20025M   26066.35727347  .00111254  00000+0  21755-2 0  9992,2 45542  53.0514 100.5596 0001770 337.0419  23.0508 15.46599033324976
STARLINK-1372,45543,53.1601,0.0001245,15.30202238,474.3551456621699,476.0616286635732,1 45543U 20025N   26066.55220427 -.00000444  00000+0 -28784-5 0  9994,2 45543  53.1601 110.9506 0001245  98.8797 261.2345 15.30202238323941
STARLINK-1373,45544,53.0493,0.0005033,15.50329702,412.34330901034446,419.18204842694377,1 45544U 20025P   26066.66668981  .00070982  00000+0  12272-2 0  9992,2 45544  53.0493  98.6862 0005033 358.5239 181.7662 15.50329702  5700
STARLINK-1327,45555,53.047,0.0006643,15.53475315,402.0812320076384,411.0954180744866,1 45555U 20025AA  26066.66668981  .00078923  00000+0  12167-2 0  9990,2 45555  53.0470  76.3959 0006643  48.1022 355.4419 15.53475315  5555
STARLINK-1356,45564,53.0518,0.0005915,15.44408877,429.0866681905327,437.14437992649437,1 45564U 20025AK  26066.46662311  .00134831  00000+0  28296-2 0  9990,2 45564  53.0518  84.4372 0005915  22.4558 337.6705 15.44408877325203
STARLINK-1357,45565,53.0531,0.0003866,15.54990659,399.55851217198415,404.80105310832096,1 45565U 20025AL  26066.66668981  .00098648  00000+0  14346-2 0  9998,2 45565  53.0531  47.7992 0003866  76.1102 329.6246 15.54990659  5923
STARLINK-1361,45567,53.0507,0.0007743,15.47219346,419.5971951037018,430.132323628256,1 45567U 20025AN  26066.55830550  .00113218  00000+0  21644-2 0  9991,2 45567  53.0507  84.0970 0007743  23.6066 336.5295 15.47219346325220
STARLINK-1363,45568,53.0423,0.0008417,15.76158406,335.68104053281513,346.9926027641777,1 45568U 20025AP  26066.66668981  .00140756  00000+0  86970-3 0  9992,2 45568  53.0423  47.8178 0008417  50.3862 298.5770 15.76158406  5833
STARLINK-1366,45569,53.0436,0.0008709,15.75370519,337.7230924577743,349.43097396081794,1 45569U 20025AQ  26066.66668981  .00121567  00000+0  77969-3 0  9990,2 45569  53.0436  48.5836 0008709  50.2489 217.6370 15.75370519  5833
STARLINK-1376,45570,53.1595,0.0001229,15.29350185,476.9110497601059,478.59622767910423,1 45570U 20025AR  26066.43199012  .00000727  00000+0  37536-4 0  9992,2 45570  53.1595  88.2750 0001229  83.1331 276.9809 15.29350185325150
STARLINK-1320,45572,53.0498,0.0007452,15.68290356,358.7682066420148,368.81637805933406,1 45572U 20025AT  26066.51285069  .00101708  00000+0  88303-3 0  9999,2 45572  53.0498 356.4684 0007452  49.5049 310.6616 15.68290356326468
STARLINK-1321,45573,53.0496,0.0004618,15.47887325,419.76670714817374,426.0481517832277,1 45573U 20025AU  26066.30518965  .00125945  00000+0  23493-2 0  9998,2 45573  53.0496  69.8958 0004618  38.7445 321.3893 15.47887325325096
STARLINK-1331,45578,53.0534,0.0004572,15.47823881,419.9837517781634,426.2027967409467,1 45578U 20025AZ  26066.57085453  .00103273  00000+0  19378-2 0  9990,2 45578  53.0534  75.2999 0004572  74.7648 285.3865 15.47823881325358
STARLINK-1333,45580,53.1609,0.0001219,15.30192054,474.4033683363241,476.0742213551075,1 45580U 20025BB  26066.34203604  .00000907  00000+0  42757-4 0  9997,2 45580  53.1609  88.7129 0001219  84.4660 275.6480 15.30192054325141
STARLINK-1335,45581,53.1545,0.0001591,15.29365518,476.61705021117996,478.7985800313518,1 45581U 20025BC  26066.66668981 -.00011080  00000+0 -37207-3 0  9995,2 45581  53.1545  84.4384 0001591  93.3564 209.0963 15.29365518  5790
STARLINK-1337,45582,53.0534,0.0004778,15.57747631,390.94153558299604,397.41315917335123,1 45582U 20025BD  26066.56778502  .00070311  00000+0  92829-3 0  9997,2 45582  53.0534  72.0585 0004778  71.8163 288.3369 15.57747631325381
STARLINK-1347,45586,53.0464,0.0005953,15.53582185,402.2384148851161,410.315938403829,1 45586U 20025BH  26066.62382496  .00117539  00000+0  17931-2 0  9995,2 45586  53.0464  39.4602 0005953  50.1606 309.9926 15.53582185325849
STARLINK-1364,45589,53.0511,0.0007339,15.48976645,414.7295467809772,424.70743907349515,1 45589U 20025BL  26066.30135012  .00125468  00000+0  22520-2 0  9993,2 45589  53.0511  74.6532 0007339  47.2483 312.9141 15.48976645325326
STARLINK-1365,45590,53.0526,0.0003776,15.44932681,429.00453529839706,434.1472304675508,1 45590U 20025BM  26066.53411883  .00094343  00000+0  19585-2 0  9997,2 45590  53.0526 103.8103 0003776  25.4009 334.7182 15.44932681324959
STARLINK-1443,45660,53.1376,0.0005226,15.25040567,487.07398635768186,494.2532567673388,1 45660U 20035D   26066.29058117  .00028244  00000+0  11247-2 0  9990,2 45660  53.1376  75.9754 0005226  32.1244 328.0072 15.25040567318397
STARLINK-1446,45663,53.0261,3.7e-05,15.42766101,437.6976660449427,438.2020564726754,1 45663U 20035G   26066.22001049  .00029290  00000+0  66627-3 0  9993,2 45663  53.0261  11.1074 0000370 254.1163 105.9801 15.42766101319290
STARLINK-1448,45665,53.0516,0.0007804,15.51749275,406.31985287256975,416.9173033789084,1 45665U 20035J   26066.52589628  .00124915  00000+0  20323-2 0  9994,2 45665  53.0516  63.1483 0007804  67.6625 292.5210 15.51749275318586
STARLINK-1451,45668,53.0518,0.0001264,15.09920184,535.5696641047361,537.317670097379,1 45668U 20035M   26066.29794329  .00037444  00000+0  22894-2 0  9992,2 45668  53.0518  76.8573 0001264  20.8519 339.2523 15.09920184318386
STARLINK-1452,45669,53.0338,0.0007942,15.44504136,427.4261858323316,438.2447344880502,1 45669U 20035N   26066.28675701  .00108721  00000+0  22826-2 0  9996,2 45669  53.0338  33.1796 0007942  45.8492 314.3165 15.44504136318993
STARLINK-1453,45670,53.0483,0.0007172,15.51909924,406.2807234931097,416.0192767660956,1 45670U 20035P   26066.66668981  .00165778  00000+0  26659-2 0  9995,2 45670  53.0483  23.0685 0007172  42.8615  72.5704 15.51909924  5919
STARLINK-1454,45671,53.0507,0.0008769,15.50451021,409.45101022793096,421.3655299225884,1 45671U 20035Q   26066.66668981  .00131930  00000+0  22449-2 0  9992,2 45671  53.0507  62.5810 0008769  50.1432 185.5866 15.50451021  5909
STARLINK-1456,45673,53.0498,0.0001772,15.4987006,415.9017311920579,418.30996525746923,1 45673U 20035S   26066.36170909  .00039798  00000+0  70585-3 0  9993,2 45673  53.0498  57.4950 0001772 100.2400 259.8808 15.49870060318664
STARLINK-1457,45674,53.0485,0.0009477,15.77927465,329.95033677210813,342.6769064803393,1 45674U 20035T   26066.66668981  .00177176  00000+0  10064-2 0  9997,2 45674  53.0485  32.5575 0009477  62.0976  83.0631 15.77927465  5972
